H1 CPF 01  gfz 2022 07 18 12  6991 terrasarx 
H2 0702601  6201 31698    2022 07 18 12 59 42 2022 07 23 00 00 42   120 1 1  0 0 0
H9
10 0 59782  15822.000000  0    5282418.615   1821977.372  -4037377.000
10 0 59782  15942.000000  0    4800013.666   1455408.411  -4729890.278
10 0 59782  16062.000000  0    4227615.161   1072770.780  -5339600.541
10 0 59782  16182.000000  0    3575039.565    682224.366  -5855930.230
10 0 59782  16302.000000  0    2853610.191    291866.236  -6269945.768
10 0 59782  16422.000000  0    2075954.423    -90432.959  -6574500.630
10 0 59782  16542.000000  0    1255781.392   -457183.062  -6764347.290
10 0 59782  16662.000000  0     407642.084   -801417.082  -6836219.557
10 0 59782  16782.000000  0    -453325.774  -1116819.515  -6788881.586
10 0 59782  16902.000000  0   -1311660.864  -1397838.580  -6623146.181
10 0 59782  17022.000000  0   -2151849.567  -1639781.759  -6341863.199
10 0 59782  17142.000000  0   -2958600.366  -1838892.961  -5949874.929
10 0 59782  17262.000000  0   -3717116.337  -1992410.277  -5453941.860
10 0 59782  17382.000000  0   -4413366.158  -2098604.622  -4862638.502
10 0 59782  17502.000000  0   -5034346.871  -2156796.987  -4186216.141
10 0 59782  17622.000000  0   -5568332.611  -2167354.262  -3436435.779
10 0 59782  17742.000000  0   -6005105.425  -2131663.441  -2626371.663
10 0 59782  17862.000000  0   -6336161.353  -2052083.843  -1770187.692
10 0 59782  17982.000000  0   -6554887.149  -1931878.438   -882890.834
10 0 59782  18102.000000  0   -6656702.214  -1775125.513     19934.877
10 0 59782  18222.000000  0   -6639161.835  -1586612.455    922408.146
10 0 59782  18342.000000  0   -6502017.730  -1371713.916   1808638.360
10 0 59782  18462.000000  0   -6247233.921  -1136258.168   2663014.701
10 0 59782  18582.000000  0   -5878957.805   -886384.886   3470489.578
10 0 59782  18702.000000  0   -5403447.557   -628397.310   4216851.214
10 0 59782  18822.000000  0   -4828955.557   -368613.565   4888977.863
10 0 59782  18942.000000  0   -4165575.362   -113220.937   5475067.665
10 0 59782  19062.000000  0   -3425055.877    131864.279   5964844.097
10 0 59782  19182.000000  0   -2620584.016    361127.729   6349732.265
10 0 59782  19302.000000  0   -1766542.831    569575.421   6623002.972
10 0 59782  19422.000000  0    -878249.559    752838.039   6779884.709
10 0 59782  19542.000000  0      28321.062    907259.894   6817640.857
10 0 59782  19662.000000  0     936823.521   1029970.157   6735613.847
10 0 59782  19782.000000  0    1830835.012   1118936.141   6535236.020
10 0 59782  19902.000000  0    2694151.273   1172997.252   6220006.188
10 0 59782  20022.000000  0    3511080.545   1191878.946   5795433.174
10 0 59782  20142.000000  0    4266731.609   1176186.719   5268944.388
10 0 59782  20262.000000  0    4947288.360   1127380.311   4649762.061
10 0 59782  20382.000000  0    5540270.329   1047728.562   3948749.226
10 0 59782  20502.000000  0    6034772.090    940245.894   3178221.982
10 0 59782  20622.000000  0    6421673.085    808611.157   2351732.799
10 0 59782  20742.000000  0    6693814.979    657070.426   1483831.251
10 0 59782  20862.000000  0    6846143.133    490327.050    589802.438
10 0 59782  20982.000000  0    6875805.506    313420.445   -314609.158
10 0 59782  21102.000000  0    6782208.259    131597.185  -1213486.328
10 0 59782  21222.000000  0    6567024.527    -49821.958  -2091028.294
10 0 59782  21342.000000  0    6234157.535   -225576.182  -2931835.599
10 0 59782  21462.000000  0    5789660.362   -390596.413  -3721185.069
10 0 59782  21582.000000  0    5241613.799   -540130.993  -4445289.578
10 0 59782  21702.000000  0    4599965.885   -669861.784  -5091536.348
10 0 59782  21822.000000  0    3876339.856   -776008.413  -5648699.991
10 0 59782  21942.000000  0    3083814.458   -855419.806  -6107129.127
10 0 59782  22062.000000  0    2236680.515   -905650.123  -6458903.014
10 0 59782  22182.000000  0    1350180.429   -925016.876  -6697956.506
10 0 59782  22302.000000  0     440235.576   -912642.740  -6820174.432
10 0 59782  22422.000000  0    -476835.821   -868478.708  -6823455.040
10 0 59782  22542.000000  0   -1384604.581   -793308.835  -6707741.638
10 0 59782  22662.000000  0   -2266818.341   -688736.580  -6475023.903
10 0 59782  22782.000000  0   -3107686.065   -557152.733  -6129306.023
10 0 59782  22902.000000  0   -3892154.415   -401685.830  -5676545.604
10 0 59782  23022.000000  0   -4606176.788   -226135.224  -5124562.406
10 0 59782  23142.000000  0   -5236967.187    -34887.924  -4482913.985
10 0 59782  23262.000000  0   -5773235.571    167178.997  -3762742.401
10 0 59782  23382.000000  0   -6205400.900    374810.100  -2976590.179
10 0 59782  23502.000000  0   -6525774.740    582494.120  -2138188.164
10 0 59782  23622.000000  0   -6728711.122    784595.752  -1262218.301
10 0 59782  23742.000000  0   -6810719.713    975492.168   -364054.933
10 0 59782  23862.000000  0   -6770534.809   1149711.635    540512.032
10 0 59782  23982.000000  0   -6609139.591   1302070.598   1435561.087
10 0 59782  24102.000000  0   -6329747.180   1427806.080   2305327.791
10 0 59782  24222.000000  0   -5937736.024   1522699.338   3134491.946
10 0 59782  24342.000000  0   -5440540.831   1583187.342   3908455.708
10 0 59782  24462.000000  0   -4847502.682   1606459.440   4613605.448
10 0 59782  24582.000000  0   -4169683.848   1590537.117   5237552.510
10 0 59782  24702.000000  0   -3419652.513   1534335.079   5769349.376
10 0 59782  24822.000000  0   -2611241.998   1437702.498   6199679.071
10 0 59782  24942.000000  0   -1759287.821   1301443.993   6521014.331
10 0 59782  25062.000000  0    -879349.418   1127318.880   6727742.217
10 0 59782  25182.000000  0      12575.931    918019.832   6816255.094
10 0 59782  25302.000000  0     900343.291    677131.075   6785009.177
10 0 59782  25422.000000  0    1767951.008    409067.017   6634549.645
10 0 59782  25542.000000  0    2599827.754    118992.118   6367502.037
10 0 59782  25662.000000  0    3381112.111   -187277.272   5988530.654
10 0 59782  25782.000000  0    4097920.570   -503387.545   5504261.898
10 0 59782  25902.000000  0    4737598.150   -822576.923   4923174.210
10 0 59782  26022.000000  0    5288948.430  -1137816.847   4255455.884
10 0 59782  26142.000000  0    5742437.865  -1441962.813   3512830.862
10 0 59782  26262.000000  0    6090370.458  -1727911.979   2708355.126
10 0 59782  26382.000000  0    6327027.580  -1988763.338   1856186.251
10 0 59782  26502.000000  0    6448769.520  -2217976.936    971330.835
10 0 59782  26622.000000  0    6454096.171  -2409528.291     69373.821
10 0 59782  26742.000000  0    6343664.223  -2558053.569   -833804.686
10 0 59782  26862.000000  0    6120260.750  -2658981.622  -1722318.361
10 0 59782  26982.000000  0    5788732.781  -2708650.192  -2580562.574
10 0 59782  27102.000000  0    5355876.569  -2704402.119  -3393494.256
10 0 59782  27222.000000  0    4830290.032  -2644660.389  -4146898.062
10 0 59782  27342.000000  0    4222192.959  -2528981.004  -4827634.548
10 0 59782  27462.000000  0    3543217.885  -2358081.875  -5423865.558
10 0 59782  27582.000000  0    2806178.587  -2133847.348  -5925251.103
10 0 59782  27702.000000  0    2024824.397  -1859309.769  -6323117.907
10 0 59782  27822.000000  0    1213581.864  -1538608.119  -6610600.126
10 0 59782  27942.000000  0     387288.277  -1176923.955  -6782746.713
10 0 59782  28062.000000  0    -439075.854   -780397.816  -6836597.190
10 0 59782  28182.000000  0   -1250652.317   -356026.536  -6771226.464
10 0 59782  28302.000000  0   -2032966.327     88457.427  -6587759.051
10 0 59782  28422.000000  0   -2772178.709    544723.310  -6289350.796
10 0 59782  28542.000000  0   -3455325.292   1003993.466  -5881140.598
10 0 59782  28662.000000  0   -4070542.601   1457207.587  -5370172.128
10 0 59782  28782.000000  0   -4607276.415   1895197.043  -4765283.848
10 0 59782  28902.000000  0   -5056468.643   2308868.371  -4076967.662
10 0 59782  29022.000000  0   -5410717.823   2689390.000  -3317196.210
10 0 59782  29142.000000  0   -5664410.687   3028378.777  -2499222.886
10 0 59782  29262.000000  0   -5813822.092   3318083.330  -1637355.405
10 0 59782  29382.000000  0   -5857178.741   3551559.383   -746705.714
10 0 59782  29502.000000  0   -5794684.161   3722831.878    157078.434
10 0 59782  29622.000000  0   -5628505.113   3827039.952   1058095.474
10 0 59782  29742.000000  0   -5362716.227   3860559.614   1940479.462
10 0 59782  29862.000000  0   -5003205.457   3821101.653   2788688.138
10 0 59782  29982.000000  0   -4557544.856   3707782.552   3587784.350
10 0 59782  30102.000000  0   -4034827.761   3521166.051   4323706.004
10 0 59782  30222.000000  0   -3445477.841   3263274.033   4983516.370
10 0 59782  30342.000000  0   -2801035.412   2937568.898   5555632.277
10 0 59782  30462.000000  0   -2113924.615   2548905.994   6030025.116
10 0 59782  30582.000000  0   -1397208.546   2103458.134   6398392.237
10 0 59782  30702.000000  0    -664336.464   1608613.798   6654295.065
10 0 59782  30822.000000  0      71108.772   1072852.179   6793264.633
10 0 59782  30942.000000  0     795662.110    505596.484   6812875.123
10 0 59782  31062.000000  0    1496221.887    -82951.578   6712783.102
10 0 59782  31182.000000  0    2160285.558   -681994.381   6494733.749
10 0 59782  31302.000000  0    2776172.395  -1280335.970   6162532.941
10 0 59782  31422.000000  0    3333230.524  -1866590.349   5721985.894
10 0 59782  31542.000000  0    3822024.709  -2429398.648   5180801.234
10 0 59782  31662.000000  0    4234500.482  -2957649.826   4548461.836
10 0 59782  31782.000000  0    4564122.397  -3440702.679   3836064.415
10 0 59782  31902.000000  0    4805983.684  -3868603.847   3056128.215
10 0 59782  32022.000000  0    4956884.791  -4232296.351   2222375.114
10 0 59782  32142.000000  0    5015376.799  -4523813.195   1349484.846
10 0 59782  32262.000000  0    4981769.317  -4736452.094    452831.449
99
